OBJECT_NAME,OBJECT_ID,EPOCH,MEAN_MOTION,ECCENTRICITY,INCLINATION,RA_OF_ASC_NODE,ARG_OF_PERICENTER,MEAN_ANOMALY,EPHEMERIS_TYPE,CLASSIFICATION_TYPE,NORAD_CAT_ID,ELEMENT_SET_NO,REV_AT_EPOCH,BSTAR,MEAN_MOTION_DOT,MEAN_MOTION_DDOT
SWARM A,2013-067B,2026-06-19T22:18:33.735168,15.50998475,.00030375,87.3319,55.2227,96.4762,263.6845,0,U,39452,999,70667,.14878725E-3,.8675E-4,0
SWARM C,2013-067C,2026-06-19T22:18:24.200064,15.50996752,.00030423,87.3318,53.8038,96.4477,263.7130,0,U,39453,999,70663,.14774365E-3,.8614E-4,0
BRITE-CA1 (TORONTO),2014-033L,2026-06-19T14:52:19.925184,14.72679560,.00772127,97.9743,299.5027,269.0848,90.1513,0,U,40020,999,64257,.91013456E-4,.553E-5,0
OCO 2,2014-035A,2026-06-19T21:39:15.510240,14.57113131,.0001506,98.2017,112.1540,84.6348,275.5023,0,U,40059,999,63644,.76897133E-4,.301E-5,0
BRITE-PL2 (HEWELIUSZ),2014-049B,2026-06-19T18:48:02.960640,14.94601604,.00153715,97.9101,282.8033,100.7431,259.5521,0,U,40119,999,64183,.16137795E-3,.1691E-4,0
MMS 1,2015-011A,2026-06-20T00:00:02.000160,0.28338678,.83205228,72.1414,348.7634,167.4848,225.4537,0,U,40482,999,138,0,-.586E-5,0
MMS 2,2015-011B,2026-06-20T00:00:02.000160,0.28338692,.83213066,72.1416,348.7656,167.4904,225.4426,0,U,40483,999,138,0,-.586E-5,0
MMS 3,2015-011C,2026-06-20T00:00:02.000160,0.28338664,.83204876,72.1447,348.7701,167.4849,225.4376,0,U,40484,999,138,0,-.586E-5,0
MMS 4,2015-011D,2026-06-20T00:00:02.000160,0.28338657,.83201008,72.1408,348.7659,167.4928,225.4262,0,U,40485,999,138,0,-.586E-5,0
ASTROSAT,2015-052A,2026-06-19T22:00:26.561376,14.82511205,.00076218,5.9957,135.6937,72.5823,287.5138,0,U,40930,999,58023,.81939225E-4,.1344E-4,0
DAMPE,2015-078A,2026-06-19T23:30:05.236992,15.30791810,.00137447,97.4556,176.4600,68.4588,291.8116,0,U,41173,999,58497,.39977641E-4,.1114E-4,0
PISAT,2016-059B,2026-06-19T11:02:19.026816,14.68986663,.00285769,97.8178,170.8151,195.3619,164.6722,0,U,41784,999,52007,.11764091E-3,.646E-5,0
HXMT (HUIYAN),2017-034A,2026-06-19T23:06:26.937792,15.18490050,.00309575,43.0125,167.5851,165.0611,195.1159,0,U,42758,999,49808,.11815912E-3,.2264E-4,0
FLYING LAPTOP,2017-042G,2026-06-19T22:02:36.368736,15.01160904,.00196795,97.4702,326.3461,112.8380,247.4926,0,U,42831,999,48686,.22508966E-3,.2839E-4,0
ZHANGHENG 1-01 (CSES-1),2018-015C,2026-06-19T23:14:12.522336,15.20840397,.00171016,97.6878,336.6805,255.9501,103.9833,0,U,43194,999,46506,.25193381E-3,.5508E-4,0
SALSAT,2020-068K,2026-06-19T22:59:40.174368,15.29832652,.00078926,97.8854,174.1914,296.5001,63.5428,0,U,46495,999,31578,.22355472E-3,.6379E-4,0
IXPE,2021-121A,2026-06-19T22:00:01.999584,15.10269521,.00071057,0.2311,297.0175,122.6571,313.0828,0,U,49954,999,538,.46547855E-3,.8777E-4,0
SMILE,2026-109A,2026-06-07T09:11:54.544416,7.54049028,.3310191,69.9787,209.3069,288.5544,45.7342,0,U,69123,999,248,-.36778157E-3,-.41E-6,0
