SWARM A                 
1 39452U 13067B   26170.92955712  .00008675  00000+0  14879-3 0  9993
2 39452  87.3319  55.2227 0003037  96.4762 263.6845 15.50998475706679
SWARM C                 
1 39453U 13067C   26170.92944676  .00008614  00000+0  14774-3 0  9998
2 39453  87.3318  53.8038 0003042  96.4477 263.7130 15.50996752706632
BRITE-CA1 (TORONTO)     
1 40020U 14033L   26170.61967506  .00000553  00000+0  91013-4 0  9993
2 40020  97.9743 299.5027 0077212 269.0848  90.1513 14.72679560642577
OCO 2                   
1 40059U 14035A   26170.90226285  .00000301  00000+0  76897-4 0  9995
2 40059  98.2017 112.1540 0001506  84.6348 275.5023 14.57113131636440
BRITE-PL2 (HEWELIUSZ)   
1 40119U 14049B   26170.78336760  .00001691  00000+0  16138-3 0  9997
2 40119  97.9101 282.8033 0015371 100.7431 259.5521 14.94601604641839
MMS 1                   
1 40482U 15011A   26171.00002315 -.00000586  00000+0  00000+0 0  9992
2 40482  72.1414 348.7634 8320522 167.4848 225.4537  0.28338678  1389
MMS 2                   
1 40483U 15011B   26171.00002315 -.00000586  00000+0  00000+0 0  9993
2 40483  72.1416 348.7656 8321306 167.4904 225.4426  0.28338692  1383
MMS 3                   
1 40484U 15011C   26171.00002315 -.00000586  00000+0  00000+0 0  9994
2 40484  72.1447 348.7701 8320487 167.4849 225.4376  0.28338664  1389
MMS 4                   
1 40485U 15011D   26171.00002315 -.00000586  00000+0  00000+0 0  9995
2 40485  72.1408 348.7659 8320100 167.4928 225.4262  0.28338657  1385
ASTROSAT                
1 40930U 15052A   26170.91697409  .00001344  00000+0  81939-4 0  9995
2 40930   5.9957 135.6937 0007621  72.5823 287.5138 14.82511205580231
DAMPE                   
1 41173U 15078A   26170.97922728  .00001114  00000+0  39978-4 0  9995
2 41173  97.4556 176.4600 0013744  68.4588 291.8116 15.30791810584972
PISAT                   
1 41784U 16059B   26170.45994244  .00000646  00000+0  11764-3 0  9999
2 41784  97.8178 170.8151 0028576 195.3619 164.6722 14.68986663520070
HXMT (HUIYAN)           
1 42758U 17034A   26170.96281178  .00002264  00000+0  11816-3 0  9992
2 42758  43.0125 167.5851 0030957 165.0611 195.1159 15.18490050498083
FLYING LAPTOP           
1 42831U 17042G   26170.91847649  .00002839  00000+0  22509-3 0  9998
2 42831  97.4702 326.3461 0019679 112.8380 247.4926 15.01160904486862
ZHANGHENG 1-01 (CSES-1) 
1 43194U 18015C   26170.96820049  .00005508  00000+0  25193-3 0  9990
2 43194  97.6878 336.6805 0017101 255.9501 103.9833 15.20840397465063
SALSAT                  
1 46495U 20068K   26170.95810387  .00006379  00000+0  22355-3 0  9995
2 46495  97.8854 174.1914 0007892 296.5001  63.5428 15.29832652315782
IXPE                    
1 49954U 21121A   26170.91668981  .00008777  00000+0  46548-3 0  9990
2 49954   0.2311 297.0175 0007105 122.6571 313.0828 15.10269521  5381
SMILE                   
1 69123U 26109A   26158.38327019 -.00000041  00000+0 -36778-3 0  9994
2 69123  69.9787 209.3069 3310191 288.5544  45.7342  7.54049028  2480
